[
    {
        "CCSDS_OMM_VERS": "3.0",
        "COMMENT": "GENERATED VIA SPACE-TRACK.ORG API",
        "CREATION_DATE": "2025-03-02T22:16:16",
        "ORIGINATOR": "18 SPCS",
        "OBJECT_NAME": "COSMOS 2516 (GLONASS)",
        "OBJECT_ID": "2016-032A",
        "CENTER_NAME": "EARTH",
        "REF_FRAME": "TEME",
        "TIME_SYSTEM": "UTC",
        "MEAN_ELEMENT_THEORY": "SGP4",
        "EPOCH": "2025-03-02T18:41:07.590912",
        "MEAN_MOTION": "2.13106373",
        "ECCENTRICITY": "0.00158950",
        "INCLINATION": "63.8452",
        "RA_OF_ASC_NODE": "207.2505",
        "ARG_OF_PERICENTER": "208.8817",
        "MEAN_ANOMALY": "150.9968",
        "EPHEMERIS_TYPE": "0",
        "CLASSIFICATION_TYPE": "U",
        "NORAD_CAT_ID": "41554",
        "ELEMENT_SET_NO": "999",
        "REV_AT_EPOCH": "6818",
        "BSTAR": "0.00000000000000",
        "MEAN_MOTION_DOT": "0.00000056",
        "MEAN_MOTION_DDOT": "0.0000000000000",
        "SEMIMAJOR_AXIS": "25507.675",
        "PERIOD": "675.719",
        "APOAPSIS": "19170.085",
        "PERIAPSIS": "19088.996",
        "OBJECT_TYPE": "PAYLOAD",
        "RCS_SIZE": "LARGE",
        "COUNTRY_CODE": "CIS",
        "LAUNCH_DATE": "2016-05-29",
        "SITE": "PKMTR",
        "DECAY_DATE": null,
        "FILE": "4657155",
        "GP_ID": "282100867",
        "TLE_LINE0": "0 COSMOS 2516 (GLONASS)",
        "TLE_LINE1": "1 41554U 16032A   25061.77856008  .00000056  00000-0  00000+0 0  9996",
        "TLE_LINE2": "2 41554  63.8452 207.2505 0015895 208.8817 150.9968  2.13106373 68189"
    }
]